#aV2008  4  5  0  0   .00000000      96 DD+AD WGS84 FIT  NGA
## 1473 518400.00000000   900.00000000 54561  .0000000000000
+   31     2  3  4  5  6  7  8  9 10 11 12 13 14 15 16 17 18
+         19 20 21 22 23 24 25 26 27 28 29 30 31 32  0  0  0
+          0  0  0  0  0  0  0  0  0  0  0  0  0  0  0  0  0
+          0  0  0  0  0  0  0  0  0  0  0  0  0  0  0  0  0
+          0  0  0  0  0  0  0  0  0  0  0  0  0  0  0  0  0
++         0  0  0  0  0  0  0  0  0  0  0  0  0  0  0  0  0
++         0  0  0  0  0  0  0  0  0  0  0  0  0  0  0  0  0
++         0  0  0  0  0  0  0  0  0  0  0  0  0  0  0  0  0
++         0  0  0  0  0  0  0  0  0  0  0  0  0  0  0  0  0
++         0  0  0  0  0  0  0  0  0  0  0  0  0  0  0  0  0
%c cc cc ccc ccc cccc cccc cccc cccc ccccc ccccc ccccc ccccc
%c cc cc ccc ccc cccc cccc cccc cccc ccccc ccccc ccccc ccccc
%f  0.0000000  0.000000000  0.00000000000  0.000000000000000
%f  0.0000000  0.000000000  0.00000000000  0.000000000000000
%i    0    0    0    0      0      0      0      0         0
%i    0    0    0    0      0      0      0      0         0
/*      NGA, ST. LOUIS,MO.                                  
/*   EPHEMERIS COMPUTED FROM  3 DAYS OF DATA                
/* CCCCCCCCCCCCCCCCCCCCCCCCCCCCCCCCCCCCCCCCCCCCCCCCCCCCCCCCC
/* CCCCCCCCCCCCCCCCCCCCCCCCCCCCCCCCCCCCCCCCCCCCCCCCCCCCCCCCC
*  2008  4  5 21  0   .00000000                                                 
P  2  12978.086160  17028.503731 -16104.407037    188.143595                    
V  2   -461.595838  20137.148819  20805.040447       .031991                    
P  3 -24259.084832 -11025.058395  -2609.357747    210.285977                    
V  3   4043.649000  -2299.833523 -30516.487224       .052065                    
P  4   6563.187494  24554.698918  -7131.872515    -40.327622                    
V  4  -2950.224253   9224.427796  29799.820953      -.076304                    
P  5  20959.001696 -16144.233624    879.333709    742.086052                    
V  5   1119.890230   3668.247644  31394.161453       .098723                    
P  6 -10039.715365 -17926.040787 -16658.685314     90.210337                    
V  6  20661.944711   6590.377855 -19375.577614       .128523                    
P  7  -8545.640992  20745.141252 -14190.704659    -80.213383                    
V  7  -3347.704618 -17819.838959 -24133.465434       .129793                    
P  8   -824.434086  26232.875470  -1813.293149   -147.778474                    
V  8  -2541.575536  -2187.294583 -32436.797249      -.015212                    
P  9  13869.665951  -6323.390080  21110.461819    118.560703                    
V  9   3531.311794  28064.212515   6075.577736       .017539                    
P 10  18415.994718   3943.579714 -18992.432908      -.436854                    
V 10 -19420.998672  13650.848071 -15786.772930      -.003025                    
P 11 -13925.350309  10316.907533  19919.229347     26.509242                    
V 11  -7899.344617 -24816.096791   7600.747796      -.002157                    
P 12  23449.007508 -11240.142274   5266.807999   -358.779293                    
V 12  -3962.538184   5922.960793  30920.490301      -.002903                    
P 13  -8883.583665  11603.175767 -22290.706955    249.111443                    
V 13 -24403.945528 -13589.674694   2692.955339       .019485                    
P 14  -8286.590828 -17784.642730  18045.788499   -280.443190                    
V 14  20478.158315   9645.061481  18923.921207       .039642                    
P 15  24681.904272   5405.202893   8219.803906    -93.670475                    
V 15   8227.558416   6920.266340 -29331.970171      -.047050                    
P 16 -14572.613794  -7738.436518 -20776.121241    129.455370                    
V 16  21883.995161 -14965.985553  -9550.490690      -.011901                    
P 17   8134.327248  18077.175312  17788.044732     40.184922                    
V 17 -20735.610224  -8770.953297  18274.885709      -.004544                    
P 18  14787.567955 -18749.109617  11417.052048   -189.962340                    
V 18  13798.878940  -5039.362479 -26900.004617       .034355                    
P 19 -24176.418529  -6600.587933   9144.824384     26.434464                    
V 19  -8646.524087  -7897.649894 -28657.739790       .011024                    
P 20 -22807.768448  13199.922017   2986.988101    117.108645                    
V 20   1388.511912  -4926.902496  31187.059825      -.008114                    
P 21   5844.408283 -23806.316609  -9249.816090     67.772527                    
V 21   4232.104670  12057.804245 -28452.173484      -.009935                    
P 22   1476.963652 -17691.869447  19893.464450    210.316787                    
V 22  22027.378191 -11882.775376 -12341.575905       .003733                    
P 23 -20475.917241   2723.056025 -16898.613771    345.762088                    
V 23 -18362.954743 -10701.443750  20379.105814       .024760                    
P 24  12919.133796 -13941.362360 -18496.551439     83.983671                    
V 24   1828.739313  23734.583237 -16184.113637       .030377                    
P 25 -10007.259114  16414.114229 -18038.153688    -55.021970                    
V 25  -5277.792328 -23026.427860 -17495.889528      -.314900                    
P 26  24421.028368   9912.374954   4689.280361    224.801253                    
V 26   5016.583171   4277.402622 -31378.612982       .088716                    
P 27  -4788.544127  23196.032385 -11190.511544    179.336897                    
V 27  -4418.157998 -14843.403679 -27408.462864       .025808                    
P 28  -3539.674094  18139.251536  19330.471445    -17.437268                    
V 28 -20911.562524  11554.322636 -15301.388149      -.004558                    
P 29  12615.817169 -10019.195947 -20993.903472    -45.230008                    
V 29  23592.334857  13024.213862   7942.662110       .014945                    
P 30  18152.320331 -18485.201406  -5931.306188     70.792116                    
V 30   7625.124549  -1663.757603  30322.490277       .016516                    
P 31  -7551.851264 -23875.286500  -8484.358297    -15.377979                    
V 31   1759.488852 -11237.118215  29440.066208      -.014168                    
P 32 -15486.226349  -7581.311281  20601.099271    263.927731                    
V 32  21597.096638 -13015.107578  11857.751261       .070012                    
EOF
